IRIDIUM 126             
1 42809U 17039G   25246.74887251  .00000314  00000+0  10493-3 0  9991
2 42809  86.3912 113.4088 0001777  65.9366 294.2016 14.34216304428899
IRIDIUM 124             
1 42810U 17039H   25246.92401208  .00000233  00000+0  63160-4 0  9997
2 42810  86.4460  50.0207 0002346  91.1144 269.0326 14.43283792433825
IRIDIUM 128             
1 42811U 17039J   25246.80938321  .00000244  00000+0  80060-4 0  9996
2 42811  86.4017 144.8867 0002522  83.0347 277.1135 14.34217887428935
IRIDIUM 121             
1 42812U 17039K   25246.90743839  .00000290  00000+0  96409-4 0  9991
2 42812  86.3950 113.3721 0002223  84.7387 275.4062 14.34218821428794
IRIDIUM 133             
1 42955U 17061A   25246.77131860  .00000113  00000+0  33448-4 0  9992
2 42955  86.4020 145.0132 0002218  85.5238 274.6211 14.34221742413727
IRIDIUM 100             
1 42956U 17061B   25246.76498166  .00000327  00000+0  10984-3 0  9993
2 42956  86.4023 144.9427 0002461  94.2038 265.9439 14.34218769413721
IRIDIUM 122             
1 42957U 17061C   25246.80303928  .00000281  00000+0  93105-4 0  9996
2 42957  86.4017 144.9247 0002169  86.1657 273.9787 14.34218042413737
IRIDIUM 129             
1 42958U 17061D   25246.75864144  .00000009  00000+0 -37723-5 0  9997
2 42958  86.4019 145.0068 0001637  77.5162 282.6217 14.34217576413744
